[{"OBJECT_NAME":"SENTINEL-1C","OBJECT_ID":"2024-235A","EPOCH":"2026-03-09T23:20:28.555872","MEAN_MOTION":14.59198602,"ECCENTRICITY":0.00013367,"INCLINATION":98.1825,"RA_OF_ASC_NODE":77.6943,"ARG_OF_PERICENTER":90.3687,"MEAN_ANOMALY":269.7665,"EPHEMERIS_TYPE":0,"CLASSIFICATION_TYPE":"U","NORAD_CAT_ID":62261,"ELEMENT_SET_NO":999,"REV_AT_EPOCH":6694,"BSTAR":0.00020454831,"MEAN_MOTION_DOT":9.19e-6,"MEAN_MOTION_DDOT":0},{"OBJECT_NAME":"CBERS 1 DEB","OBJECT_ID":"1999-057NY","EPOCH":"2026-03-09T02:08:53.829888","MEAN_MOTION":14.5860901,"ECCENTRICITY":0.00056005,"INCLINATION":98.6394,"RA_OF_ASC_NODE":111.9269,"ARG_OF_PERICENTER":35.281,"MEAN_ANOMALY":19.0444,"EPHEMERIS_TYPE":0,"CLASSIFICATION_TYPE":"U","NORAD_CAT_ID":30789,"ELEMENT_SET_NO":999,"REV_AT_EPOCH":164,"BSTAR":0.00097961619,"MEAN_MOTION_DOT":4.513e-5,"MEAN_MOTION_DDOT":0}]
